{
  "type": "FeatureCollection",
  "features": [
    {
      "type": "Feature",
      "properties": {
        "norad_id": 43602,
        "name": "BEIDOU-3 M12 (C26)",
        "group": "beidou",
        "lat": 53.28899140852531,
        "lon": -68.76364752939352,
        "alt_km": 21507.926637431607,
        "timestamp": "2025-12-27T05:29:39.468483+00:00",
        "meta_object_name": "BEIDOU-3 M12 (C26)",
        "meta_object_id": "2018-067A",
        "meta_epoch": "2025-12-26T13:05:12.985152",
        "meta_mean_motion": 1.86227811,
        "meta_eccentricity": 0.0009236,
        "meta_inclination": 54.1838,
        "meta_ra_of_asc_node": 186.8947,
        "meta_arg_of_pericenter": 41.8469,
        "meta_mean_anomaly": 318.2561,
        "meta_ephemeris_type": 0,
        "meta_classification_type": "U",
        "meta_norad_cat_id": 43602,
        "meta_element_set_no": 999,
        "meta_rev_at_epoch": 4990,
        "meta_bstar": 0,
        "meta_mean_motion_dot": 1.23e-06,
        "meta_mean_motion_ddot": 0,
        "tle_line1": "1 43602U 18067A   25360.54528918  .00000123  00000+0  00000+0 0  9999",
        "tle_line2": "2 43602  54.1838 186.8947 0009236  41.8469 318.2561  1.86227811 49905"
      },
      "geometry": {
        "type": "Point",
        "coordinates": [
          -68.76364752939352,
          53.28899140852531
        ]
      }
    },
    {
      "type": "Feature",
      "properties": {
        "norad_id": 43603,
        "name": "BEIDOU-3 M11 (C25)",
        "group": "beidou",
        "lat": 6.593064143343212,
        "lon": -168.3729042699949,
        "alt_km": 21514.16365129182,
        "timestamp": "2025-12-27T05:29:39.468494+00:00",
        "meta_object_name": "BEIDOU-3 M11 (C25)",
        "meta_object_id": "2018-067B",
        "meta_epoch": "2025-12-24T12:46:04.310976",
        "meta_mean_motion": 1.86227356,
        "meta_eccentricity": 0.00056287,
        "meta_inclination": 54.181,
        "meta_ra_of_asc_node": 186.927,
        "meta_arg_of_pericenter": 37.873,
        "meta_mean_anomaly": 322.1992,
        "meta_ephemeris_type": 0,
        "meta_classification_type": "U",
        "meta_norad_cat_id": 43603,
        "meta_element_set_no": 999,
        "meta_rev_at_epoch": 4989,
        "meta_bstar": 0,
        "meta_mean_motion_dot": 1.05e-06,
        "meta_mean_motion_ddot": 0,
        "tle_line1": "1 43603U 18067B   25358.53199434  .00000105  00000+0  00000+0 0  9993",
        "tle_line2": "2 43603  54.1810 186.9270 0005628  37.8730 322.1992  1.86227356 49897"
      },
      "geometry": {
        "type": "Point",
        "coordinates": [
          -168.3729042699949,
          6.593064143343212
        ]
      }
    },
    {
      "type": "Feature",
      "properties": {
        "norad_id": 43622,
        "name": "BEIDOU-3 M13 (C32)",
        "group": "beidou",
        "lat": 30.388104551284947,
        "lon": 91.20838767513361,
        "alt_km": 21527.345523708293,
        "timestamp": "2025-12-27T05:29:39.468506+00:00",
        "meta_object_name": "BEIDOU-3 M13 (C32)",
        "meta_object_id": "2018-072A",
        "meta_epoch": "2025-12-26T15:16:14.790720",
        "meta_mean_motion": 1.86231078,
        "meta_eccentricity": 0.0006463,
        "meta_inclination": 56.4705,
        "meta_ra_of_asc_node": 68.3604,
        "meta_arg_of_pericenter": 297.862,
        "meta_mean_anomaly": 62.1239,
        "meta_ephemeris_type": 0,
        "meta_classification_type": "U",
        "meta_norad_cat_id": 43622,
        "meta_element_set_no": 999,
        "meta_rev_at_epoch": 4944,
        "meta_bstar": 0,
        "meta_mean_motion_dot": -3.2e-07,
        "meta_mean_motion_ddot": 0,
        "tle_line1": "1 43622U 18072A   25360.63628230 -.00000032  00000+0  00000+0 0  9995",
        "tle_line2": "2 43622  56.4705  68.3604 0006463 297.8620  62.1239  1.86231078 49446"
      },
      "geometry": {
        "type": "Point",
        "coordinates": [
          91.20838767513361,
          30.388104551284947
        ]
      }
    },
    {
      "type": "Feature",
      "properties": {
        "norad_id": 43623,
        "name": "BEIDOU-3 M14 (C33)",
        "group": "beidou",
        "lat": 41.36299854418736,
        "lon": -147.31529861074515,
        "alt_km": 21532.495476250737,
        "timestamp": "2025-12-27T05:29:39.468517+00:00",
        "meta_object_name": "BEIDOU-3 M14 (C33)",
        "meta_object_id": "2018-072B",
        "meta_epoch": "2025-12-23T06:43:13.861056",
        "meta_mean_motion": 1.86231163,
        "meta_eccentricity": 0.00035931,
        "meta_inclination": 56.4696,
        "meta_ra_of_asc_node": 68.4654,
        "meta_arg_of_pericenter": 327.0772,
        "meta_mean_anomaly": 32.9541,
        "meta_ephemeris_type": 0,
        "meta_classification_type": "U",
        "meta_norad_cat_id": 43623,
        "meta_element_set_no": 999,
        "meta_rev_at_epoch": 4937,
        "meta_bstar": 0,
        "meta_mean_motion_dot": -2.6e-07,
        "meta_mean_motion_ddot": 0,
        "tle_line1": "1 43623U 18072B   25357.28002154 -.00000026  00000+0  00000+0 0  9997",
        "tle_line2": "2 43623  56.4696  68.4654 0003593 327.0772  32.9541  1.86231163 49375"
      },
      "geometry": {
        "type": "Point",
        "coordinates": [
          -147.31529861074515,
          41.36299854418736
        ]
      }
    },
    {
      "type": "Feature",
      "properties": {
        "norad_id": 43647,
        "name": "BEIDOU-3 M16 (C35)",
        "group": "beidou",
        "lat": 17.608812581260686,
        "lon": -40.7975460026826,
        "alt_km": 21504.950101271952,
        "timestamp": "2025-12-27T05:29:39.468528+00:00",
        "meta_object_name": "BEIDOU-3 M16 (C35)",
        "meta_object_id": "2018-078A",
        "meta_epoch": "2025-12-26T02:56:19.347360",
        "meta_mean_motion": 1.86232218,
        "meta_eccentricity": 0.0007499,
        "meta_inclination": 54.2494,
        "meta_ra_of_asc_node": 306.0535,
        "meta_arg_of_pericenter": 20.7112,
        "meta_mean_anomaly": 339.3289,
        "meta_ephemeris_type": 0,
        "meta_classification_type": "U",
        "meta_norad_cat_id": 43647,
        "meta_element_set_no": 999,
        "meta_rev_at_epoch": 4893,
        "meta_bstar": 0,
        "meta_mean_motion_dot": -5.5e-07,
        "meta_mean_motion_ddot": 0,
        "tle_line1": "1 43647U 18078A   25360.12244615 -.00000055  00000+0  00000+0 0  9998",
        "tle_line2": "2 43647  54.2494 306.0535 0007499  20.7112 339.3289  1.86232218 48932"
      },
      "geometry": {
        "type": "Point",
        "coordinates": [
          -40.7975460026826,
          17.608812581260686
        ]
      }
    },
    {
      "type": "Feature",
      "properties": {
        "norad_id": 43648,
        "name": "BEIDOU-3 M15 (C34)",
        "group": "beidou",
        "lat": -47.25715685957947,
        "lon": -105.15339037869335,
        "alt_km": 21532.120888309135,
        "timestamp": "2025-12-27T05:29:39.468540+00:00",
        "meta_object_name": "BEIDOU-3 M15 (C34)",
        "meta_object_id": "2018-078B",
        "meta_epoch": "2025-12-26T06:02:24.001152",
        "meta_mean_motion": 1.86232322,
        "meta_eccentricity": 0.0004086,
        "meta_inclination": 54.2454,
        "meta_ra_of_asc_node": 306.0502,
        "meta_arg_of_pericenter": 19.6229,
        "meta_mean_anomaly": 340.4025,
        "meta_ephemeris_type": 0,
        "meta_classification_type": "U",
        "meta_norad_cat_id": 43648,
        "meta_element_set_no": 999,
        "meta_rev_at_epoch": 4895,
        "meta_bstar": 0,
        "meta_mean_motion_dot": -5.6e-07,
        "meta_mean_motion_ddot": 0,
        "tle_line1": "1 43648U 18078B   25360.25166668 -.00000056  00000+0  00000+0 0  9995",
        "tle_line2": "2 43648  54.2454 306.0502 0004086  19.6229 340.4025  1.86232322 48957"
      },
      "geometry": {
        "type": "Point",
        "coordinates": [
          -105.15339037869335,
          -47.25715685957947
        ]
      }
    },
    {
      "type": "Feature",
      "properties": {
        "norad_id": 43683,
        "name": "BEIDOU-3 G1 (C59)",
        "group": "beidou",
        "lat": -1.559843847140714,
        "lon": -41.74954919996262,
        "alt_km": 35793.302230821624,
        "timestamp": "2025-12-27T05:29:39.468551+00:00",
        "meta_object_name": "BEIDOU-3 G1 (C59)",
        "meta_object_id": "2018-085A",
        "meta_epoch": "2025-12-26T05:08:26.429856",
        "meta_mean_motion": 1.0026556,
        "meta_eccentricity": 0.0001266,
        "meta_inclination": 2.6395,
        "meta_ra_of_asc_node": 102.5209,
        "meta_arg_of_pericenter": 50.4767,
        "meta_mean_anomaly": 159.0004,
        "meta_ephemeris_type": 0,
        "meta_classification_type": "U",
        "meta_norad_cat_id": 43683,
        "meta_element_set_no": 999,
        "meta_rev_at_epoch": 2632,
        "meta_bstar": 0,
        "meta_mean_motion_dot": -2.58e-06,
        "meta_mean_motion_ddot": 0,
        "tle_line1": "1 43683U 18085A   25360.21419479 -.00000258  00000+0  00000+0 0  9993",
        "tle_line2": "2 43683   2.6395 102.5209 0001266  50.4767 159.0004  1.00265560 26321"
      },
      "geometry": {
        "type": "Point",
        "coordinates": [
          -41.74954919996262,
          -1.559843847140714
        ]
      }
    }
  ]
}